GLOBALSTAR M067 [+]     
1 32263U 07048A   23298.49495632 -.00000056  00000+0  30423-3 0  9997
2 32263  51.9751 353.5451 0001212 130.2053 338.9206 12.40633253734927
GLOBALSTAR M070 [+]     
1 32264U 07048B   23299.03435281 -.00000061  00000+0  23951-3 0  9997
2 32264  51.9729 156.7509 0000672 103.1713  43.9685 12.62280855738851
GLOBALSTAR M066 [+]     
1 32265U 07048C   23298.59430035 -.00000059  00000+0  25129-3 0  9996
2 32265  51.9700  20.1508 0000770  82.7026  56.0854 12.62274547740084
GLOBALSTAR M068 [-]     
1 32266U 07048D   23298.49638354 -.00000053  00000+0  28026-3 0  9993
2 32266  51.9899 333.2767 0000529 242.6237 269.2494 12.62768914741661
GLOBALSTAR M079 [+]     
1 37188U 10054A   23298.95200718 -.00000082  00000+0  12001-3 0  9990
2 37188  52.0020 166.9998 0001120  78.2939 296.3858 12.62269331600651
GLOBALSTAR M074 [+]     
1 37189U 10054B   23298.89880640 -.00000074  00000+0  16802-3 0  9996
2 37189  51.9996 166.5767 0000912  83.8700 289.3646 12.62271369601324
GLOBALSTAR M076 [+]     
1 37190U 10054C   23298.86098071 -.00000076  00000+0  15755-3 0  9992
2 37190  52.0010 166.8090 0001392  96.1795 344.6157 12.62262633601327
GLOBALSTAR M077 [+]     
1 37191U 10054D   23298.51744679 -.00000082  00000+0  12205-3 0  9991
2 37191  52.0046 124.5375 0000902  98.5658 279.4138 12.62267906601292
